[{"OBJECT_NAME":"STARLINK-35055","OBJECT_ID":"2025-200E","EPOCH":"2026-03-09T16:58:41.927808","MEAN_MOTION":15.05650325,"ECCENTRICITY":5.95e-5,"INCLINATION":97.6021,"RA_OF_ASC_NODE":139.8176,"ARG_OF_PERICENTER":117.7964,"MEAN_ANOMALY":242.3323,"EPHEMERIS_TYPE":0,"CLASSIFICATION_TYPE":"U","NORAD_CAT_ID":65524,"ELEMENT_SET_NO":999,"REV_AT_EPOCH":2913,"BSTAR":0.0002462695,"MEAN_MOTION_DOT":3.494e-5,"MEAN_MOTION_DDOT":0},{"OBJECT_NAME":"OBJECT D","OBJECT_ID":"2025-292D","EPOCH":"2026-03-09T21:45:32.907168","MEAN_MOTION":15.05344615,"ECCENTRICITY":0.00138692,"INCLINATION":97.6365,"RA_OF_ASC_NODE":145.5948,"ARG_OF_PERICENTER":343.7291,"MEAN_ANOMALY":16.3488,"EPHEMERIS_TYPE":0,"CLASSIFICATION_TYPE":"U","NORAD_CAT_ID":66996,"ELEMENT_SET_NO":999,"REV_AT_EPOCH":1350,"BSTAR":0.00030674408,"MEAN_MOTION_DOT":4.34e-5,"MEAN_MOTION_DDOT":0}]
